SL-16 R/B               
1 25400U 98043G   26031.82554196  .00000069  00000+0  47965-4 0  9996
2 25400  98.8193 344.9421 0010754 118.4176 241.8089 14.26040366433737
SL-16 R/B               
1 25407U 98045B   26031.84392833 -.00000186  00000+0 -69880-4 0  9997
2 25407  71.0096 259.0604 0005091  77.5306 282.6387 14.16186571421881
ISS (ZARYA)             
1 25544U 98067A   26031.79058160  .00007092  00000+0  13988-3 0  9997
2 25544  51.6322 254.7614 0011121  51.2288 308.9692 15.48310229550611
CZ-4B R/B               
1 25732U 99025C   26031.86104259  .00000066  00000+0  52272-4 0  9994
2 25732  98.6697  77.0029 0038183  90.9724  82.2439 14.18257509382941
OKEAN-O                 
1 25860U 99039A   26031.67761037  .00000876  00000+0  12193-3 0  9999
2 25860  97.9522  91.9305 0001901  92.9490 267.1940 14.80271001428915
SL-16 R/B               
1 25861U 99039B   26031.76002784  .00000710  00000+0  96890-4 0  9991
2 25861  98.0044  90.8965 0015256  22.3741 337.8133 14.81676166431398
DELTA 2 R/B             
1 25876U 99041E   26031.84137354  .00002162  00000+0  38515-3 0  9993
2 25876  51.7643  88.4252 0502631 239.5542 115.4827 14.11677361357822
HELIOS 1B               
1 25977U 99064A   26031.71947573  .00002113  00000+0  23933-3 0  9992
2 25977  98.1738 292.8700 0001679 124.8696 235.2677 14.87537561679769
TERRA                   
1 25994U 99068A   26031.80625689  .00000558  00000+0  12286-3 0  9996
2 25994  97.9670  86.6354 0001186 325.1659 126.2902 14.60972149389698
SL-16 R/B               
1 26070U 00006B   26031.77910580  .00000240  00000+0  14620-3 0  9991
2 26070  71.0024 175.4447 0018524 241.4342 118.4917 14.15818601343335
TITAN 4B R/B            
1 26474U 00047B   26031.78677446  .00003859  00000+0  24647-3 0  9995
2 26474  67.9898 144.2539 0036664  81.4446 279.0855 15.09246627387345
ENVISAT                 
1 27386U 02009A   26031.89047163  .00000144  00000+0  60568-4 0  9994
2 27386  98.3668 346.3786 0001249  92.0103 283.0845 14.39022243253882
