CCSDS_OMM_VERS = 2.0
CREATION_DATE  = 
ORIGINATOR     = 

OBJECT_NAME    = SL-16 R/B
OBJECT_ID      = 1998-043G
CENTER_NAME    = EARTH
REF_FRAME      = TEME
TIME_SYSTEM    = UTC
MEAN_ELEMENT_THEORY = SGP/SGP4

EPOCH          = 2026-01-31T19:48:46.825344
MEAN_MOTION    = 14.26040366
ECCENTRICITY   = .0010754
INCLINATION    = 98.8193
RA_OF_ASC_NODE = 344.9421
ARG_OF_PERICENTER = 118.4176
MEAN_ANOMALY   = 241.8089

EPHEMERIS_TYPE = 0
CLASSIFICATION_TYPE = U
NORAD_CAT_ID   = 25400
ELEMENT_SET_NO = 999
REV_AT_EPOCH   = 43373
BSTAR          = .47965E-4
MEAN_MOTION_DOT = .69E-6
MEAN_MOTION_DDOT = 0

CCSDS_OMM_VERS = 2.0
CREATION_DATE  = 
ORIGINATOR     = 

OBJECT_NAME    = SL-16 R/B
OBJECT_ID      = 1998-045B
CENTER_NAME    = EARTH
REF_FRAME      = TEME
TIME_SYSTEM    = UTC
MEAN_ELEMENT_THEORY = SGP/SGP4

EPOCH          = 2026-01-31T20:15:15.407712
MEAN_MOTION    = 14.16186571
ECCENTRICITY   = .0005091
INCLINATION    = 71.0096
RA_OF_ASC_NODE = 259.0604
ARG_OF_PERICENTER = 77.5306
MEAN_ANOMALY   = 282.6387

EPHEMERIS_TYPE = 0
CLASSIFICATION_TYPE = U
NORAD_CAT_ID   = 25407
ELEMENT_SET_NO = 999
REV_AT_EPOCH   = 42188
BSTAR          = -.6988E-4
MEAN_MOTION_DOT = -.186E-5
MEAN_MOTION_DDOT = 0

CCSDS_OMM_VERS = 2.0
CREATION_DATE  = 
ORIGINATOR     = 

OBJECT_NAME    = ISS (ZARYA)
OBJECT_ID      = 1998-067A
CENTER_NAME    = EARTH
REF_FRAME      = TEME
TIME_SYSTEM    = UTC
MEAN_ELEMENT_THEORY = SGP/SGP4

EPOCH          = 2026-01-31T18:58:26.250240
MEAN_MOTION    = 15.48310229
ECCENTRICITY   = .0011121
INCLINATION    = 51.6322
RA_OF_ASC_NODE = 254.7614
ARG_OF_PERICENTER = 51.2288
MEAN_ANOMALY   = 308.9692

EPHEMERIS_TYPE = 0
CLASSIFICATION_TYPE = U
NORAD_CAT_ID   = 25544
ELEMENT_SET_NO = 999
REV_AT_EPOCH   = 55061
BSTAR          = .13988E-3
MEAN_MOTION_DOT = .7092E-4
MEAN_MOTION_DDOT = 0

CCSDS_OMM_VERS = 2.0
CREATION_DATE  = 
ORIGINATOR     = 

OBJECT_NAME    = CZ-4B R/B
OBJECT_ID      = 1999-025C
CENTER_NAME    = EARTH
REF_FRAME      = TEME
TIME_SYSTEM    = UTC
MEAN_ELEMENT_THEORY = SGP/SGP4

EPOCH          = 2026-01-31T20:39:54.079776
MEAN_MOTION    = 14.18257509
ECCENTRICITY   = .0038183
INCLINATION    = 98.6697
RA_OF_ASC_NODE = 77.0029
ARG_OF_PERICENTER = 90.9724
MEAN_ANOMALY   = 82.2439

EPHEMERIS_TYPE = 0
CLASSIFICATION_TYPE = U
NORAD_CAT_ID   = 25732
ELEMENT_SET_NO = 999
REV_AT_EPOCH   = 38294
BSTAR          = .52272E-4
MEAN_MOTION_DOT = .66E-6
MEAN_MOTION_DDOT = 0

CCSDS_OMM_VERS = 2.0
CREATION_DATE  = 
ORIGINATOR     = 

OBJECT_NAME    = OKEAN-O
OBJECT_ID      = 1999-039A
CENTER_NAME    = EARTH
REF_FRAME      = TEME
TIME_SYSTEM    = UTC
MEAN_ELEMENT_THEORY = SGP/SGP4

EPOCH          = 2026-01-31T16:15:45.535968
MEAN_MOTION    = 14.80271001
ECCENTRICITY   = .0001901
INCLINATION    = 97.9522
RA_OF_ASC_NODE = 91.9305
ARG_OF_PERICENTER = 92.9490
MEAN_ANOMALY   = 267.1940

EPHEMERIS_TYPE = 0
CLASSIFICATION_TYPE = U
NORAD_CAT_ID   = 25860
ELEMENT_SET_NO = 999
REV_AT_EPOCH   = 42891
BSTAR          = .12193E-3
MEAN_MOTION_DOT = .876E-5
MEAN_MOTION_DDOT = 0

CCSDS_OMM_VERS = 2.0
CREATION_DATE  = 
ORIGINATOR     = 

OBJECT_NAME    = SL-16 R/B
OBJECT_ID      = 1999-039B
CENTER_NAME    = EARTH
REF_FRAME      = TEME
TIME_SYSTEM    = UTC
MEAN_ELEMENT_THEORY = SGP/SGP4

EPOCH          = 2026-01-31T18:14:26.405376
MEAN_MOTION    = 14.81676166
ECCENTRICITY   = .0015256
INCLINATION    = 98.0044
RA_OF_ASC_NODE = 90.8965
ARG_OF_PERICENTER = 22.3741
MEAN_ANOMALY   = 337.8133

EPHEMERIS_TYPE = 0
CLASSIFICATION_TYPE = U
NORAD_CAT_ID   = 25861
ELEMENT_SET_NO = 999
REV_AT_EPOCH   = 43139
BSTAR          = .9689E-4
MEAN_MOTION_DOT = .71E-5
MEAN_MOTION_DDOT = 0

CCSDS_OMM_VERS = 2.0
CREATION_DATE  = 
ORIGINATOR     = 

OBJECT_NAME    = DELTA 2 R/B
OBJECT_ID      = 1999-041E
CENTER_NAME    = EARTH
REF_FRAME      = TEME
TIME_SYSTEM    = UTC
MEAN_ELEMENT_THEORY = SGP/SGP4

EPOCH          = 2026-01-31T20:11:34.673856
MEAN_MOTION    = 14.11677361
ECCENTRICITY   = .0502631
INCLINATION    = 51.7643
RA_OF_ASC_NODE = 88.4252
ARG_OF_PERICENTER = 239.5542
MEAN_ANOMALY   = 115.4827

EPHEMERIS_TYPE = 0
CLASSIFICATION_TYPE = U
NORAD_CAT_ID   = 25876
ELEMENT_SET_NO = 999
REV_AT_EPOCH   = 35782
BSTAR          = .38515E-3
MEAN_MOTION_DOT = .2162E-4
MEAN_MOTION_DDOT = 0

CCSDS_OMM_VERS = 2.0
CREATION_DATE  = 
ORIGINATOR     = 

OBJECT_NAME    = HELIOS 1B
OBJECT_ID      = 1999-064A
CENTER_NAME    = EARTH
REF_FRAME      = TEME
TIME_SYSTEM    = UTC
MEAN_ELEMENT_THEORY = SGP/SGP4

EPOCH          = 2026-01-31T17:16:02.703072
MEAN_MOTION    = 14.87537561
ECCENTRICITY   = .0001679
INCLINATION    = 98.1738
RA_OF_ASC_NODE = 292.8700
ARG_OF_PERICENTER = 124.8696
MEAN_ANOMALY   = 235.2677

EPHEMERIS_TYPE = 0
CLASSIFICATION_TYPE = U
NORAD_CAT_ID   = 25977
ELEMENT_SET_NO = 999
REV_AT_EPOCH   = 67976
BSTAR          = .23933E-3
MEAN_MOTION_DOT = .2113E-4
MEAN_MOTION_DDOT = 0

CCSDS_OMM_VERS = 2.0
CREATION_DATE  = 
ORIGINATOR     = 

OBJECT_NAME    = TERRA
OBJECT_ID      = 1999-068A
CENTER_NAME    = EARTH
REF_FRAME      = TEME
TIME_SYSTEM    = UTC
MEAN_ELEMENT_THEORY = SGP/SGP4

EPOCH          = 2026-01-31T19:21:00.595296
MEAN_MOTION    = 14.60972149
ECCENTRICITY   = .0001186
INCLINATION    = 97.9670
RA_OF_ASC_NODE = 86.6354
ARG_OF_PERICENTER = 325.1659
MEAN_ANOMALY   = 126.2902

EPHEMERIS_TYPE = 0
CLASSIFICATION_TYPE = U
NORAD_CAT_ID   = 25994
ELEMENT_SET_NO = 999
REV_AT_EPOCH   = 38969
BSTAR          = .12286E-3
MEAN_MOTION_DOT = .558E-5
MEAN_MOTION_DDOT = 0

CCSDS_OMM_VERS = 2.0
CREATION_DATE  = 
ORIGINATOR     = 

OBJECT_NAME    = SL-16 R/B
OBJECT_ID      = 2000-006B
CENTER_NAME    = EARTH
REF_FRAME      = TEME
TIME_SYSTEM    = UTC
MEAN_ELEMENT_THEORY = SGP/SGP4

EPOCH          = 2026-01-31T18:41:54.741120
MEAN_MOTION    = 14.15818601
ECCENTRICITY   = .0018524
INCLINATION    = 71.0024
RA_OF_ASC_NODE = 175.4447
ARG_OF_PERICENTER = 241.4342
MEAN_ANOMALY   = 118.4917

EPHEMERIS_TYPE = 0
CLASSIFICATION_TYPE = U
NORAD_CAT_ID   = 26070
ELEMENT_SET_NO = 999
REV_AT_EPOCH   = 34333
BSTAR          = .1462E-3
MEAN_MOTION_DOT = .24E-5
MEAN_MOTION_DDOT = 0

CCSDS_OMM_VERS = 2.0
CREATION_DATE  = 
ORIGINATOR     = 

OBJECT_NAME    = TITAN 4B R/B
OBJECT_ID      = 2000-047B
CENTER_NAME    = EARTH
REF_FRAME      = TEME
TIME_SYSTEM    = UTC
MEAN_ELEMENT_THEORY = SGP/SGP4

EPOCH          = 2026-01-31T18:52:57.313344
MEAN_MOTION    = 15.09246627
ECCENTRICITY   = .0036664
INCLINATION    = 67.9898
RA_OF_ASC_NODE = 144.2539
ARG_OF_PERICENTER = 81.4446
MEAN_ANOMALY   = 279.0855

EPHEMERIS_TYPE = 0
CLASSIFICATION_TYPE = U
NORAD_CAT_ID   = 26474
ELEMENT_SET_NO = 999
REV_AT_EPOCH   = 38734
BSTAR          = .24647E-3
MEAN_MOTION_DOT = .3859E-4
MEAN_MOTION_DDOT = 0

CCSDS_OMM_VERS = 2.0
CREATION_DATE  = 
ORIGINATOR     = 

OBJECT_NAME    = ENVISAT
OBJECT_ID      = 2002-009A
CENTER_NAME    = EARTH
REF_FRAME      = TEME
TIME_SYSTEM    = UTC
MEAN_ELEMENT_THEORY = SGP/SGP4

EPOCH          = 2026-01-31T21:22:16.748832
MEAN_MOTION    = 14.39022243
ECCENTRICITY   = .0001249
INCLINATION    = 98.3668
RA_OF_ASC_NODE = 346.3786
ARG_OF_PERICENTER = 92.0103
MEAN_ANOMALY   = 283.0845

EPHEMERIS_TYPE = 0
CLASSIFICATION_TYPE = U
NORAD_CAT_ID   = 27386
ELEMENT_SET_NO = 999
REV_AT_EPOCH   = 25388
BSTAR          = .60568E-4
MEAN_MOTION_DOT = .144E-5
MEAN_MOTION_DDOT = 0

